CCSDS_OMM_VERS = 2.0
CREATION_DATE  = 
ORIGINATOR     = 

OBJECT_NAME    = KUIPER-00268
OBJECT_ID      = 2026-030AC
CENTER_NAME    = EARTH
REF_FRAME      = TEME
TIME_SYSTEM    = UTC
MEAN_ELEMENT_THEORY = SGP/SGP4

EPOCH          = 2026-03-07T06:49:30.580608
MEAN_MOTION    = 15.35932908
ECCENTRICITY   = .00023999
INCLINATION    = 51.8839
RA_OF_ASC_NODE = 230.7060
ARG_OF_PERICENTER = 40.3779
MEAN_ANOMALY   = 319.7385

EPHEMERIS_TYPE = 0
CLASSIFICATION_TYPE = U
NORAD_CAT_ID   = 67790
ELEMENT_SET_NO = 999
REV_AT_EPOCH   = 472
BSTAR          = .18406241E-2
MEAN_MOTION_DOT = .6556E-3
MEAN_MOTION_DDOT = 0

CCSDS_OMM_VERS = 2.0
CREATION_DATE  = 
ORIGINATOR     = 

OBJECT_NAME    = KUIPER-00270
OBJECT_ID      = 2026-030AD
CENTER_NAME    = EARTH
REF_FRAME      = TEME
TIME_SYSTEM    = UTC
MEAN_ELEMENT_THEORY = SGP/SGP4

EPOCH          = 2026-03-07T05:45:21.323232
MEAN_MOTION    = 15.34566666
ECCENTRICITY   = .0010685
INCLINATION    = 51.8819
RA_OF_ASC_NODE = 231.1415
ARG_OF_PERICENTER = 48.7336
MEAN_ANOMALY   = 311.4569

EPHEMERIS_TYPE = 0
CLASSIFICATION_TYPE = U
NORAD_CAT_ID   = 67791
ELEMENT_SET_NO = 999
REV_AT_EPOCH   = 471
BSTAR          = .13661698E-2
MEAN_MOTION_DOT = .46432E-3
MEAN_MOTION_DDOT = 0

CCSDS_OMM_VERS = 2.0
CREATION_DATE  = 
ORIGINATOR     = 

OBJECT_NAME    = KUIPER-00274
OBJECT_ID      = 2026-030AE
CENTER_NAME    = EARTH
REF_FRAME      = TEME
TIME_SYSTEM    = UTC
MEAN_ELEMENT_THEORY = SGP/SGP4

EPOCH          = 2026-03-07T06:29:13.181280
MEAN_MOTION    = 15.30754414
ECCENTRICITY   = .00177812
INCLINATION    = 51.8821
RA_OF_ASC_NODE = 231.3431
ARG_OF_PERICENTER = 62.7488
MEAN_ANOMALY   = 297.5305

EPHEMERIS_TYPE = 0
CLASSIFICATION_TYPE = U
NORAD_CAT_ID   = 67792
ELEMENT_SET_NO = 999
REV_AT_EPOCH   = 471
BSTAR          = .20482396E-2
MEAN_MOTION_DOT = .62206E-3
MEAN_MOTION_DDOT = 0

CCSDS_OMM_VERS = 2.0
CREATION_DATE  = 
ORIGINATOR     = 

OBJECT_NAME    = KUIPER-00275
OBJECT_ID      = 2026-030AF
CENTER_NAME    = EARTH
REF_FRAME      = TEME
TIME_SYSTEM    = UTC
MEAN_ELEMENT_THEORY = SGP/SGP4

EPOCH          = 2026-03-07T04:07:41.431584
MEAN_MOTION    = 15.34625009
ECCENTRICITY   = .00091996
INCLINATION    = 51.8850
RA_OF_ASC_NODE = 231.4487
ARG_OF_PERICENTER = 46.6520
MEAN_ANOMALY   = 313.5231

EPHEMERIS_TYPE = 0
CLASSIFICATION_TYPE = U
NORAD_CAT_ID   = 67793
ELEMENT_SET_NO = 999
REV_AT_EPOCH   = 470
BSTAR          = .96474808E-3
MEAN_MOTION_DOT = .32662E-3
MEAN_MOTION_DDOT = 0

CCSDS_OMM_VERS = 2.0
CREATION_DATE  = 
ORIGINATOR     = 

OBJECT_NAME    = KUIPER-00276
OBJECT_ID      = 2026-030AG
CENTER_NAME    = EARTH
REF_FRAME      = TEME
TIME_SYSTEM    = UTC
MEAN_ELEMENT_THEORY = SGP/SGP4

EPOCH          = 2026-03-07T06:34:48.662976
MEAN_MOTION    = 15.30619004
ECCENTRICITY   = .00190493
INCLINATION    = 51.8811
RA_OF_ASC_NODE = 231.3656
ARG_OF_PERICENTER = 60.4845
MEAN_ANOMALY   = 299.8036

EPHEMERIS_TYPE = 0
CLASSIFICATION_TYPE = U
NORAD_CAT_ID   = 67794
ELEMENT_SET_NO = 999
REV_AT_EPOCH   = 471
BSTAR          = -.30639512E-3
MEAN_MOTION_DOT = -.9617E-4
MEAN_MOTION_DDOT = 0

CCSDS_OMM_VERS = 2.0
CREATION_DATE  = 
ORIGINATOR     = 

OBJECT_NAME    = KUIPER-00279
OBJECT_ID      = 2026-030AH
CENTER_NAME    = EARTH
REF_FRAME      = TEME
TIME_SYSTEM    = UTC
MEAN_ELEMENT_THEORY = SGP/SGP4

EPOCH          = 2026-03-07T07:04:17.150016
MEAN_MOTION    = 15.35328668
ECCENTRICITY   = .00080032
INCLINATION    = 51.8800
RA_OF_ASC_NODE = 230.7617
ARG_OF_PERICENTER = 40.5895
MEAN_ANOMALY   = 319.5687

EPHEMERIS_TYPE = 0
CLASSIFICATION_TYPE = U
NORAD_CAT_ID   = 67795
ELEMENT_SET_NO = 999
REV_AT_EPOCH   = 472
BSTAR          = .20129158E-2
MEAN_MOTION_DOT = .70458E-3
MEAN_MOTION_DDOT = 0

CCSDS_OMM_VERS = 2.0
CREATION_DATE  = 
ORIGINATOR     = 

OBJECT_NAME    = CREW DRAGON 12
OBJECT_ID      = 2026-031A
CENTER_NAME    = EARTH
REF_FRAME      = TEME
TIME_SYSTEM    = UTC
MEAN_ELEMENT_THEORY = SGP/SGP4

EPOCH          = 2026-03-07T06:06:36.812736
MEAN_MOTION    = 15.48501510
ECCENTRICITY   = .00081427
INCLINATION    = 51.6318
RA_OF_ASC_NODE = 84.3952
ARG_OF_PERICENTER = 166.2106
MEAN_ANOMALY   = 193.9106

EPHEMERIS_TYPE = 0
CLASSIFICATION_TYPE = U
NORAD_CAT_ID   = 67796
ELEMENT_SET_NO = 999
REV_AT_EPOCH   = 55583
BSTAR          = .28420598E-3
MEAN_MOTION_DOT = .14982E-3
MEAN_MOTION_DDOT = 0

CCSDS_OMM_VERS = 2.0
CREATION_DATE  = 
ORIGINATOR     = 

OBJECT_NAME    = STARLINK-36800
OBJECT_ID      = 2026-032A
CENTER_NAME    = EARTH
REF_FRAME      = TEME
TIME_SYSTEM    = UTC
MEAN_ELEMENT_THEORY = SGP/SGP4

EPOCH          = 2026-03-07T06:42:26.290080
MEAN_MOTION    = 15.75321617
ECCENTRICITY   = .00015234
INCLINATION    = 97.2840
RA_OF_ASC_NODE = 252.6428
ARG_OF_PERICENTER = 77.5755
MEAN_ANOMALY   = 282.5681

EPHEMERIS_TYPE = 0
CLASSIFICATION_TYPE = U
NORAD_CAT_ID   = 67797
ELEMENT_SET_NO = 999
REV_AT_EPOCH   = 440
BSTAR          = .20354773E-2
MEAN_MOTION_DOT = .316811E-2
MEAN_MOTION_DDOT = 0

CCSDS_OMM_VERS = 2.0
CREATION_DATE  = 
ORIGINATOR     = 

OBJECT_NAME    = STARLINK-36798
OBJECT_ID      = 2026-032B
CENTER_NAME    = EARTH
REF_FRAME      = TEME
TIME_SYSTEM    = UTC
MEAN_ELEMENT_THEORY = SGP/SGP4

EPOCH          = 2026-03-07T06:00:00.999648
MEAN_MOTION    = 15.75170164
ECCENTRICITY   = .00015543
INCLINATION    = 97.2854
RA_OF_ASC_NODE = 252.6529
ARG_OF_PERICENTER = 93.0829
MEAN_ANOMALY   = 192.0828

EPHEMERIS_TYPE = 0
CLASSIFICATION_TYPE = U
NORAD_CAT_ID   = 67798
ELEMENT_SET_NO = 999
REV_AT_EPOCH   = 432
BSTAR          = -.4078706E-5
MEAN_MOTION_DOT = -.738E-5
MEAN_MOTION_DDOT = 0

CCSDS_OMM_VERS = 2.0
CREATION_DATE  = 
ORIGINATOR     = 

OBJECT_NAME    = STARLINK-36804
OBJECT_ID      = 2026-032C
CENTER_NAME    = EARTH
REF_FRAME      = TEME
TIME_SYSTEM    = UTC
MEAN_ELEMENT_THEORY = SGP/SGP4

EPOCH          = 2026-03-07T06:39:54.119808
MEAN_MOTION    = 15.75251232
ECCENTRICITY   = .00007262
INCLINATION    = 97.2840
RA_OF_ASC_NODE = 252.6453
ARG_OF_PERICENTER = 74.9964
MEAN_ANOMALY   = 285.1381

EPHEMERIS_TYPE = 0
CLASSIFICATION_TYPE = U
NORAD_CAT_ID   = 67799
ELEMENT_SET_NO = 999
REV_AT_EPOCH   = 440
BSTAR          = .14722136E-2
MEAN_MOTION_DOT = .225969E-2
MEAN_MOTION_DDOT = 0

CCSDS_OMM_VERS = 2.0
CREATION_DATE  = 
ORIGINATOR     = 

OBJECT_NAME    = STARLINK-36354
OBJECT_ID      = 2026-032D
CENTER_NAME    = EARTH
REF_FRAME      = TEME
TIME_SYSTEM    = UTC
MEAN_ELEMENT_THEORY = SGP/SGP4

EPOCH          = 2026-03-07T06:24:09.002304
MEAN_MOTION    = 15.75247380
ECCENTRICITY   = .00014353
INCLINATION    = 97.2851
RA_OF_ASC_NODE = 252.6618
ARG_OF_PERICENTER = 93.8539
MEAN_ANOMALY   = 266.2891

EPHEMERIS_TYPE = 0
CLASSIFICATION_TYPE = U
NORAD_CAT_ID   = 67800
ELEMENT_SET_NO = 999
REV_AT_EPOCH   = 440
BSTAR          = .84219946E-3
MEAN_MOTION_DOT = .127702E-2
MEAN_MOTION_DDOT = 0

CCSDS_OMM_VERS = 2.0
CREATION_DATE  = 
ORIGINATOR     = 

OBJECT_NAME    = STARLINK-36773
OBJECT_ID      = 2026-032E
CENTER_NAME    = EARTH
REF_FRAME      = TEME
TIME_SYSTEM    = UTC
MEAN_ELEMENT_THEORY = SGP/SGP4

EPOCH          = 2026-03-07T06:35:19.886208
MEAN_MOTION    = 15.75231142
ECCENTRICITY   = .00016078
INCLINATION    = 97.2845
RA_OF_ASC_NODE = 252.6494
ARG_OF_PERICENTER = 49.3680
MEAN_ANOMALY   = 310.7725

EPHEMERIS_TYPE = 0
CLASSIFICATION_TYPE = U
NORAD_CAT_ID   = 67801
ELEMENT_SET_NO = 999
REV_AT_EPOCH   = 440
BSTAR          = .94376948E-3
MEAN_MOTION_DOT = .143281E-2
MEAN_MOTION_DDOT = 0

