KUIPER-00268            
1 67790U 26030AC  26066.28438172  .00065560  00000+0  18406-2 0  9997
2 67790  51.8839 230.7060 0002399  40.3779 319.7385 15.35932908  4720
KUIPER-00270            
1 67791U 26030AD  26066.23983013  .00046432  00000+0  13662-2 0  9998
2 67791  51.8819 231.1415 0010685  48.7336 311.4569 15.34566666  4711
KUIPER-00274            
1 67792U 26030AE  26066.27029145  .00062206  00000+0  20482-2 0  9995
2 67792  51.8821 231.3431 0017781  62.7488 297.5305 15.30754414  4711
KUIPER-00275            
1 67793U 26030AF  26066.17200731  .00032662  00000+0  96475-3 0  9996
2 67793  51.8850 231.4487 0009199  46.6520 313.5231 15.34625009  4705
KUIPER-00276            
1 67794U 26030AG  26066.27417434 -.00009617  00000+0 -30640-3 0  9996
2 67794  51.8811 231.3656 0019049  60.4845 299.8036 15.30619004  4713
KUIPER-00279            
1 67795U 26030AH  26066.29464294  .00070458  00000+0  20129-2 0  9994
2 67795  51.8800 230.7617 0008003  40.5895 319.5687 15.35328668  4725
CREW DRAGON 12          
1 67796U 26031A   26066.25459274  .00014982  00000+0  28421-3 0  9998
2 67796  51.6318  84.3952 0008142 166.2106 193.9106 15.48501510555834
STARLINK-36800          
1 67797U 26032A   26066.27947095  .00316811  00000+0  20355-2 0  9998
2 67797  97.2840 252.6428 0001523  77.5755 282.5681 15.75321617  4402
STARLINK-36798          
1 67798U 26032B   26066.25001157 -.00000738  00000+0 -40787-5 0  9991
2 67798  97.2854 252.6529 0001554  93.0829 192.0828 15.75170164  4327
STARLINK-36804          
1 67799U 26032C   26066.27770972  .00225969  00000+0  14722-2 0  9992
2 67799  97.2840 252.6453 0000726  74.9964 285.1381 15.75251232  4400
STARLINK-36354          
1 67800U 26032D   26066.26677086  .00127702  00000+0  84220-3 0  9993
2 67800  97.2851 252.6618 0001435  93.8539 266.2891 15.75247380  4409
STARLINK-36773          
1 67801U 26032E   26066.27453572  .00143281  00000+0  94377-3 0  9991
2 67801  97.2845 252.6494 0001607  49.3680 310.7725 15.75231142  4409
